{"type":"FeatureCollection","features":[{"type":"Feature","id":118,"geometry":{"type":"Polygon","coordinates":[[[76.833081786040765,15.942508000592442],[76.832953247005079,15.942505719391439],[76.832614768992542,15.942500550626965],[76.83057401765258,15.942667829709517],[76.828754771997041,15.942719644278373],[76.82753952748746,15.942714129150387],[76.825260295897422,15.942635374660627],[76.82455470068281,15.942602288195221],[76.823347213125658,15.942547918582379],[76.822275967657745,15.9424173234809],[76.821356918358561,15.942287570465291],[76.820107473189452,15.942002191792756],[76.818015004041953,15.941512096256396],[76.817513837538201,15.941409759543378],[76.816050104647985,15.941112146046295],[76.814348991045577,15.940819759651996],[76.813925035638789,15.94070417750846],[76.813702239973622,15.940574070965521],[76.813549130218277,15.940163298386139],[76.813309599837666,15.939325862375778],[76.813198433321247,15.938495286476622],[76.813129044753751,15.938117183963051],[76.81302607536432,15.937443318934019],[76.812657408568356,15.93534881290015],[76.812451897387547,15.934331063822043],[76.812399690896456,15.933656730854448],[76.812295490815117,15.933542269255632],[76.813653072483163,15.92754303273402],[76.814515315018738,15.919581933283899],[76.81366925114142,15.912547626228976],[76.813165733746601,15.902714921033137],[76.812890330941727,15.897583753168123],[76.812684603266945,15.895271487772543],[76.812631409527398,15.895026426775775],[76.812334248628019,15.894651655131337],[76.812081910966413,15.89433898677833],[76.809130250860349,15.894127524525041],[76.804689974530703,15.894842354794211],[76.798915520341041,15.895771931525662],[76.797268242773626,15.895969893474073],[76.795688413412691,15.896162259336874],[76.794476145919944,15.896552703025641],[76.794216978367203,15.896605077242455],[76.793720996040946,15.896279088753731],[76.793538041556914,15.896158379277191],[76.792766716612945,15.894610130142395],[76.791714704075304,15.890128162944295],[76.791462173275889,15.884327775287813],[76.791607718318218,15.883574968674429],[76.792004521247208,15.88303778758371],[76.792073057313488,15.883003709778366],[76.792904432837574,15.882576835982309],[76.794109618012627,15.88243046805845],[76.795810943617454,15.882481070384662],[76.796443520172531,15.88231762152469],[76.796642089172821,15.882090698761527],[76.796969866453679,15.881723416597167],[76.79720714385958,15.880266109834617],[76.797306576581732,15.878989955268226],[76.797343727308629,15.877893087419727],[76.797252547408974,15.877408081159572],[76.797252672274794,15.877343016052038],[76.796367740990107,15.876949483294991],[76.79485032657513,15.876964828748784],[76.793637092495104,15.877354067176647],[76.79266782467657,15.878056830188283],[76.791867376351078,15.879496244085189],[76.791058712932312,15.880995868762476],[76.790981800076025,15.881002247884769],[76.789105340720056,15.881121119158689],[76.785023943143031,15.880448585455776],[76.781057008001156,15.880145351009862],[76.780500818787957,15.880069457003849],[76.7800740902819,15.879323530340521],[76.780050087297525,15.878163962616597],[76.780081525637513,15.877250685135099],[76.780103581972668,15.876397576704377],[76.779379959366935,15.875581637033525],[76.778684760355063,15.875440243559945],[76.778082784011815,15.875420918164599],[76.777929573645181,15.875417700433379],[76.777129438831707,15.874844443171579],[76.776633362182366,15.874462468338486],[76.775549447774011,15.872061634103623],[76.775046367858721,15.870939670459073],[76.773421653276301,15.86554223783572],[76.770995587561515,15.856627522423002],[76.770584212161978,15.855822796127848],[76.770476957808626,15.855790401379359],[76.769706638079441,15.8555503795316],[76.767327191334687,15.855723919886771],[76.764961958632625,15.855895651455823],[76.764519154774561,15.856125140814163],[76.764512197322674,15.856275572856202],[76.764481701315418,15.85722308544142],[76.764724955212913,15.859425868870591],[76.767647332037299,15.870610915994151],[76.769088763352329,15.876600079264508],[76.769203180871727,15.877091649029792],[76.76909599029878,15.877518170689516],[76.769058452397999,15.877697190901504],[76.768035927059557,15.877970927203169],[76.766769466900655,15.878054369399219],[76.76474787572738,15.878236198993861],[76.763283532881047,15.878557929340722],[76.758263607834508,15.879475333574719],[76.756364504645191,15.879783612394137],[76.756165464927676,15.880082384657273],[76.75607495786619,15.881055185174187],[76.757333337679086,15.886947837242973],[76.758080534772859,15.89300707913954],[76.757928018803923,15.89586821781843],[76.758035111460529,15.897347071063828],[76.757859339905522,15.897469742739244],[76.757447475822474,15.897811092170526],[76.757287819145333,15.897852145642684],[76.756822111840819,15.897967792186867],[76.756699412752766,15.897998760674612],[76.751382926881504,15.898448648589842],[76.748849928410252,15.898882396017489],[76.747446301795677,15.899121701861526],[76.743090235337363,15.899963300386707],[76.743075558662241,15.900160275903703],[76.741908449478828,15.900659239654033],[76.740710427469821,15.901194752091012],[76.739467401661727,15.901092726587853],[76.738635365875894,15.900306864198861],[76.737819025454698,15.899328625720948],[76.736797584382813,15.898346390154066],[76.736141233913713,15.898327208645968],[76.735279506112818,15.89855518008582],[76.733219785049016,15.899317454849687],[76.731831074061375,15.899719266291978],[76.730411786218141,15.899965834343451],[76.730076503513075,15.898233219921172],[76.729771200283977,15.896945798314018],[76.729642413313272,15.896584939162896],[76.729512415413552,15.895980866683427],[76.729329004585381,15.895293802316806],[76.729138577914796,15.894696674869147],[76.729032006281088,15.89421903297713],[76.728970249800255,15.893619718212872],[76.7275595013421,15.888890188602254],[76.727239365131013,15.887499504103795],[76.727094159651855,15.887106089690558],[76.726743296566497,15.886387850226887],[76.726498610754462,15.885608388009164],[76.725308916128157,15.883796892293676],[76.724729778552714,15.883460806018721],[76.723554246765175,15.883447852661606],[76.722692484828272,15.883526186244264],[76.721906636821103,15.883502241721949],[76.721342518178858,15.882595880748044],[76.72043455319195,15.882314058294524],[76.719992499427178,15.882276322957335],[76.719321283636774,15.882216567981484],[76.7181230109978,15.880720937298728],[76.717429242103876,15.879873788114987],[76.715926177377241,15.879638821894957],[76.714331321896537,15.88009802623554],[76.712218293007155,15.88041394300002],[76.711425077916303,15.880580320739686],[76.710143534145473,15.8796524019219],[76.70946455511438,15.878425598274815],[76.708549453012537,15.87820737287808],[76.707306493679766,15.878170143963311],[76.706512310205085,15.878209741212959],[76.706039162155037,15.878638888910672],[76.705780792306285,15.879733418942221],[76.705734278439195,15.879898400966418],[76.705711685809788,15.880722962584287],[76.703972170127301,15.881685949861257],[76.701966008417372,15.882892646903871],[76.701027378539919,15.883309397189128],[76.700242460289076,15.883413229730232],[76.699539978635201,15.882913862922686],[76.699403487712601,15.882814135086464],[76.698976322625356,15.881787096121396],[76.698487958012706,15.880756686523469],[76.698105944048237,15.880237029119987],[76.69686301256327,15.880198570198901],[76.694146726333003,15.879647438909073],[76.692918582914217,15.879229329693292],[76.692499163101346,15.87903479360469],[76.691751957024408,15.878685594512305],[76.691125674066214,15.877715203597804],[76.690981313901744,15.876061457344758],[76.690439767227659,15.872552966955434],[76.690234044044431,15.870960928348172],[76.690073741478628,15.867718682064101],[76.690317740977775,15.864331399804355],[76.690515776378788,15.860973287576389],[76.690600390492037,15.85958823800123],[76.690615269288088,15.859327364239695],[76.69058443012436,15.858120754217923],[76.690264268760487,15.857166142695492],[76.690051333003851,15.856516816589904],[76.689768653845192,15.855175448897571],[76.689242429734918,15.853002140097015],[76.688998379031801,15.850518371054939],[76.688830317716864,15.847658404040372],[76.68882249878061,15.846739188900253],[76.688815641940067,15.84612822294144],[76.688723526894194,15.838776929292967],[76.688212988267068,15.834508481394058],[76.687365464627433,15.832261889228223],[76.686771307220411,15.831532460421876],[76.686038683495511,15.830634738230756],[76.684917600393973,15.830023026968684],[76.684680845807591,15.829895660278343],[76.683330401254437,15.829027852055093],[76.682681501412318,15.829007551659958],[76.682048923958916,15.829203585340453],[76.681880660523063,15.829224827748648],[76.681308708571564,15.829408236262474],[76.680584153514545,15.829604324001929],[76.679996426248323,15.82976888638178],[76.679515734146506,15.829909967029106],[76.678905566964517,15.830045167243126],[76.678523915021103,15.830125945777914],[76.677959426272992,15.830178343302137],[76.67751801480361,15.830219262761863],[76.676854308929009,15.830276016060571],[76.676358140651487,15.830239589826904],[76.676244077966601,15.830322166779021],[76.675320397852133,15.830393366773114],[76.675076860087032,15.830470060747215],[76.674732700230308,15.830617266668687],[76.674603641070078,15.830691303871827],[76.674084498379187,15.826051574055009],[76.673733384663862,15.820582495614532],[76.673864224284969,15.816841028226403],[76.674207276518928,15.814186029540759],[76.674137782848575,15.810441846518442],[76.673909187659888,15.807450916621791],[76.673878684466118,15.807266030044842],[76.675946047498059,15.808727432714795],[76.678242263535125,15.810277085170824],[76.679127203802992,15.811013733469375],[76.680011625742935,15.81164306360737],[76.680317026888389,15.811762673243662],[76.680660442940038,15.811663375253438],[76.680988409765419,15.811234778344835],[76.681407639135472,15.810400886754357],[76.682002700247679,15.807900093735679],[76.682468739030554,15.806077164453956],[76.682583231110158,15.805620217963851],[76.682644483636111,15.802235881584091],[76.682750886386586,15.798872627040073],[76.683086876964083,15.796393243450376],[76.683742895954822,15.79008938987764],[76.684864026667057,15.790237667666446],[76.688648182496351,15.78901999897038],[76.698549824986344,15.786866938839562],[76.704247731035665,15.785626199691626],[76.708191294708755,15.784453800023936],[76.708435736179041,15.784138552672161],[76.708672672225106,15.783834444921579],[76.708832091746999,15.782824444065209],[76.70861888829242,15.7793275912724],[76.707978649107957,15.774990042235473],[76.707879243335256,15.77384623707019],[76.708161432912107,15.773347477777316],[76.709869926174562,15.773208781737821],[76.718528442245088,15.773473362870556],[76.719565570596828,15.773505329051106],[76.719642029803907,15.773509246911338],[76.72022183213268,15.771684790979602],[76.719863889424545,15.768753454390266],[76.719939775506532,15.762288460829499],[76.71877229352225,15.753938669398467],[76.718712012973413,15.753669422639005],[76.718429926702825,15.752311337034859],[76.717293253339548,15.746912967391484],[76.716430943430325,15.742890689540467],[76.716392763234111,15.74272039766818],[76.709961362992345,15.742566376070739],[76.704576169476582,15.742932931337442],[76.694224034448041,15.743483279173715],[76.688723872745598,15.743047321173405],[76.684132311138924,15.742307715358846],[76.679639115055849,15.740437164112409],[76.678846052678622,15.740166190952966],[76.670316576005376,15.737256235088692],[76.661208885224752,15.733443516902909],[76.657402803316018,15.731793823604944],[76.656593506584954,15.731368068692275],[76.655914298483495,15.73108061583239],[76.655563588111733,15.731070003752935],[76.655350721525366,15.731330365727242],[76.655373516275716,15.731650747323355],[76.655487375043023,15.733466068929214],[76.655128428018415,15.742385405861986],[76.65515871381993,15.758241175056105],[76.655128536714571,15.763371385159276],[76.655105980916119,15.764037083558179],[76.655036979522507,15.764083623714761],[76.65474704197635,15.764294378310892],[76.653160969324176,15.764377576087066],[76.648537635204235,15.764463116696408],[76.647637366084354,15.759954883383372],[76.647378859691685,15.758463950400452],[76.647393919947419,15.758050212462679],[76.643228178650062,15.757862530675059],[76.642915693390265,15.761827335859332],[76.642770117805185,15.762533011096792],[76.637865078300365,15.762500544350889],[76.637071980888848,15.76040094360596],[76.63660683682798,15.759851932370516],[76.635379051837006,15.759695922335554],[76.630489403167914,15.759364747837425],[76.629856256182649,15.759820711007261],[76.629535138112971,15.760403473261627],[76.627871937907145,15.760530338131735],[76.626536964139817,15.76019338810614],[76.623813945036531,15.759670425114622],[76.623508963404291,15.759484524928739],[76.623158107505475,15.759057251087475],[76.622951734840285,15.757864937595549],[76.622563543161647,15.747236529504264],[76.622159099162843,15.740877230366426],[76.622136254106863,15.739783055707715],[76.621540572258795,15.739170983723339],[76.621075547673868,15.738562604489813],[76.620915225345115,15.737787463806628],[76.620572513572654,15.73694622940239],[76.620152290665871,15.736636233619166],[76.619663904493692,15.73662044001116],[76.619039017517437,15.736898599629489],[76.618482432147189,15.737237489639222],[76.617742215861469,15.737272851786857],[76.617299803668871,15.737614824482435],[76.616994252504782,15.739504848157663],[76.616430370119474,15.743461283342063],[76.616063244832532,15.743626865898378],[76.612753622255454,15.743524788517954],[76.612394604263926,15.743097200105394],[76.612417524778408,15.740607798561046],[76.613043077406289,15.738434049369159],[76.613462921223999,15.736843858146855],[76.613829171551828,15.733179176739926],[76.613516549748113,15.729787233333276],[76.613096678082655,15.72735111500818],[76.612691626822738,15.726449367193924],[76.612226639068709,15.72584211723972],[76.610160124944727,15.725302162832834],[76.609175110557615,15.725272480504508],[76.608580759114489,15.724838452375733],[76.608435722518621,15.723529795032565],[76.608710480333087,15.72081133306952],[76.609640918473431,15.718583961932934],[76.610121792933256,15.717058884395628],[76.610228228921386,15.713858342434664],[76.610227895646403,15.712137410601434],[76.609594575286252,15.710872308865168],[76.609305616005429,15.710761167118909],[76.608748469188143,15.710549922054199],[76.607161129911418,15.710322135701054],[76.600250496431897,15.709633037431924],[76.598297199678115,15.7094543226284],[76.597694716685055,15.709019960705412],[76.597923324450136,15.707560894581624],[76.598870218828196,15.70486068249277],[76.599892266262884,15.701749031250067],[76.600227490577481,15.700809755474973],[76.60013568006049,15.700688804027507],[76.599587351105995,15.699958626274309],[76.597106784602957,15.699533209519702],[76.597073297205796,15.698980784055165],[76.597192523406918,15.69820124038883],[76.597493881235266,15.696897831683357],[76.597479598022247,15.696574354717269],[76.597368380301873,15.695961985908186],[76.597395747477023,15.695479155807183],[76.597643694173556,15.693977492592175],[76.597708525587606,15.692667587079635],[76.597552023793753,15.691592520469735],[76.597637078979787,15.690753521954942],[76.598075019358888,15.688856119191296],[76.598117268025021,15.687521426083311],[76.598227970112418,15.685856073566413],[76.598372836926714,15.68347651658098],[76.598456001159107,15.681971052953562],[76.598685338356191,15.681057559007215],[76.598846588644633,15.679691940160684],[76.598874581945495,15.678806340844986],[76.598927809821035,15.677461818191066],[76.599364428778344,15.676012874825686],[76.599676575373309,15.674732756443852],[76.599687167408817,15.67401882568061],[76.600128003956399,15.673950767564342],[76.601487273558888,15.673323465580856],[76.603139658048676,15.672818864735634],[76.604213588580947,15.672586027504217],[76.605503670838573,15.672277907539117],[76.606360187512522,15.67221156916556],[76.606989954137404,15.672160773360403],[76.607271452909799,15.672249955110066],[76.608080695741918,15.672157889721392],[76.609351296235971,15.671746315998552],[76.61045709450292,15.671272706620636],[76.61191031890101,15.671037906844925],[76.612908414555307,15.670607070709341],[76.61464700137978,15.670393092402893],[76.615302076241136,15.670297556091624],[76.617772162998108,15.669782016800131],[76.61832839353383,15.669833427296192],[76.619929869598167,15.669810574152081],[76.620323145741352,15.669753246671629],[76.621289219150711,15.669954465365135],[76.622420542148191,15.670206295934779],[76.622904138503273,15.670277821925154],[76.624116384436491,15.670209709801593],[76.625182026213622,15.670275375047508],[76.625978990872454,15.670195308766848],[76.62730262071436,15.670349233720145],[76.629250237420621,15.670658576139477],[76.631149118726057,15.670231240427837],[76.633246279774269,15.669912759394604],[76.636282266532689,15.668781092800526],[76.638100287784482,15.668282222172017],[76.638958766378991,15.668134750676748],[76.640068652878838,15.667913250020703],[76.640779436762557,15.667957724196352],[76.641611044950309,15.667924493332633],[76.642502619276542,15.667443891577893],[76.643305015149565,15.667224722049976],[76.643672471914826,15.667224575010236],[76.644395224053113,15.667234099725118],[76.645334503412514,15.667158033464398],[76.646481440926237,15.666892208715993],[76.64694782106892,15.666802131142507],[76.647723677115181,15.666628744048815],[76.648514419144007,15.666376027691474],[76.649087576634642,15.666265914335956],[76.65039193851203,15.665889468875649],[76.651188416283958,15.665820659872635],[76.652070667894193,15.665696809144443],[76.652772124570305,15.665648455192459],[76.65328663824252,15.66550193583239],[76.653870327581529,15.665393332203893],[76.65374674544961,15.66439949487344],[76.653442075532794,15.663158236280315],[76.653400345194569,15.662570204043323],[76.653489503884856,15.6616172908367],[76.653547745257967,15.660882322364211],[76.653575123212875,15.659582546956432],[76.654331165118919,15.659673120746346],[76.655682751430817,15.659712569501723],[76.656252260863027,15.659694720815651],[76.657062973338981,15.659592173229274],[76.658020152528692,15.659688983459649],[76.658798629858993,15.659447176203283],[76.660209466352043,15.659085977189525],[76.661575528116387,15.659056300791926],[76.663398481119117,15.658786661342482],[76.66447110280599,15.658611538360402],[76.665398391452953,15.65856913722854],[76.66705743066241,15.658606076036353],[76.667629159831733,15.658531212340966],[76.66996016402652,15.658369135590107],[76.671195799394752,15.658301495234213],[76.671911398248426,15.658161147414344],[76.671208815983235,15.656309744474651],[76.671450743967327,15.653854017684397],[76.671587245669727,15.652107569904578],[76.671406691484108,15.651031823516545],[76.671353389946731,15.650074846328838],[76.671305321095886,15.648531589549535],[76.671346790922655,15.646414278320862],[76.671327204056212,15.645136788485456],[76.67131029866087,15.644514328766896],[76.670935236758396,15.643203269525406],[76.670671411440907,15.641365737187167],[76.670559954768677,15.640752365474857],[76.670353616239467,15.639342534967401],[76.670316381070947,15.639029682332115],[76.671093180348265,15.638857365123025],[76.671683917869004,15.639288641008497],[76.672248974352371,15.63944285739953],[76.672970072692195,15.639913137392144],[76.673399479076124,15.640224394382765],[76.67404021682556,15.640611855958209],[76.674417012476525,15.64109460988349],[76.674683862421574,15.641286947642211],[76.675806565185582,15.641031439585378],[76.67627477339984,15.640861476135806],[76.678048688269513,15.641419368489288],[76.679476767026117,15.642059276087979],[76.6797536565428,15.642688968983183],[76.679818122342539,15.643300614324444],[76.679844110603696,15.643600503003073],[76.680049471765855,15.643860180797679],[76.680833054221878,15.644239152937468],[76.681569221800586,15.644203348193143],[76.68181661154162,15.644291131266455],[76.682116377555289,15.644575940060955],[76.682667657475491,15.645144931906673],[76.683160379815561,15.645343238905571],[76.684705002403888,15.645653054280128],[76.684982147940417,15.645914210400569],[76.685486631922501,15.646838610286814],[76.685743191665964,15.647386542896944],[76.68593013287321,15.64748465990125],[76.686195457478917,15.647354021468452],[76.686613534310425,15.647262058182962],[76.686989322051659,15.646985988153231],[76.687287991222391,15.646936436905344],[76.688844918933469,15.647626608420756],[76.689337736494963,15.647399309779347],[76.690153704115318,15.647491886304508],[76.69051691993414,15.647629527871821],[76.691001647268195,15.647700867133002],[76.691626592634933,15.645106273576332],[76.692269370458391,15.639600581478412],[76.692944045660951,15.638480836330189],[76.693414244541927,15.635927421814076],[76.693460237386148,15.634017999163328],[76.693744793125447,15.632483542927442],[76.693673139905101,15.631722195270546],[76.693769480626088,15.63051631107747],[76.693383292190504,15.624521416104269],[76.692325589723808,15.624593447728579],[76.691346395521421,15.624796123588762],[76.69010930039083,15.624909502596521],[76.688763916946002,15.625445620184664],[76.686262845498234,15.62578771629159],[76.684487712513089,15.626414184783943],[76.683031248790101,15.626718000714524],[76.682272706872624,15.626695942115338],[76.681429602045867,15.626728971185688],[76.68047995253481,15.626746685194965],[76.680501831003568,15.626034401044091],[76.680156164672141,15.623756991020839],[76.68030804104059,15.622277063172193],[76.680266939523094,15.621700532167406],[76.680219274015798,15.620537326751137],[76.680261829007435,15.617603304322909],[76.680035466132239,15.61610156125724],[76.679859090909346,15.614888021888168],[76.679853655203587,15.613910067681477],[76.679703012222035,15.612247961353987],[76.679773843483872,15.61106516314053],[76.680016326626813,15.607804248820647],[76.680487909811617,15.606759354434887],[76.681400144491064,15.607154416868001],[76.68199653690651,15.607045050326212],[76.684277970267274,15.606167930403492],[76.685066963276256,15.605949229087194],[76.685736584557048,15.605772932690735],[76.686523751291062,15.60487533489378],[76.687190589591083,15.604377203988934],[76.688216879768902,15.603807790028549],[76.688666665333329,15.603442044820598],[76.690157543514843,15.602035093995749],[76.690528489336685,15.601517009477202],[76.69074061660956,15.601177939205654],[76.690488963464205,15.600112301089226],[76.689993379989915,15.599235116918283],[76.689372691739322,15.598215314722717],[76.689144196263641,15.597553250004589],[76.688902329364964,15.59690210503414],[76.688886848697692,15.595878193464905],[76.688829043007473,15.595427725993455],[76.689690599230161,15.595187703138121],[76.690548771499195,15.594671465939321],[76.691526611042121,15.59371124643163],[76.692743569537299,15.593079195787844],[76.694753536510802,15.592516031367937],[76.695523398099198,15.592181360766139],[76.696688242629762,15.59170823530963],[76.697635723607732,15.591770205121653],[76.698455396778627,15.591334663027606],[76.698957232527235,15.59123319048015],[76.699630454255683,15.590931479076025],[76.700380339108762,15.590837913096117],[76.70046409622924,15.591196909234384],[76.700574167699315,15.591878582161776],[76.700837971457204,15.592541905957878],[76.700720800601431,15.593286022258782],[76.700813464517964,15.593749162555566],[76.700899740514473,15.59440715384612],[76.701372487017565,15.594479159708117],[76.702352813097235,15.593816721264853],[76.704762761239181,15.593379807762215],[76.705822026774456,15.593260983596114],[76.709741040389162,15.592730674248436],[76.711279018139308,15.592499189174742],[76.71289039902797,15.592165403703081],[76.713872269311608,15.592251335786951],[76.715874697623235,15.5919408746635],[76.718173936491254,15.591260142481069],[76.720305045772406,15.590999934258196],[76.721220250282187,15.590922536594311],[76.722003724042068,15.590933894887172],[76.725779055720324,15.590858833406333],[76.727185042209172,15.59102624253519],[76.728049078680357,15.591084985128679],[76.729989569051469,15.591279751878689],[76.730852100844544,15.591408012850527],[76.731593236106761,15.591601457178315],[76.73422694111126,15.592011826641819],[76.736406434551895,15.592144439397906],[76.737539267617365,15.59231439911871],[76.73908788411542,15.592141189493455],[76.740032123073533,15.591523974080483],[76.740633854176679,15.591242303404673],[76.741072625497424,15.590852057538022],[76.742244296325865,15.590563634290078],[76.744524657996536,15.590491007526012],[76.746008686523993,15.590465977175151],[76.74634027984817,15.590474548478589],[76.747943260590617,15.590049950976907],[76.748686796151276,15.589783643686017],[76.748941948234688,15.589606914613768],[76.750684891888298,15.589092661290467],[76.751219351753093,15.588906628236288],[76.751741478647389,15.588765781200996],[76.752311378846784,15.588545659600472],[76.753204425511754,15.5881250184684],[76.753681517165901,15.587869598164737],[76.754105570489003,15.587279143323759],[76.754364499089874,15.586697556767854],[76.75448873070377,15.586343830114444],[76.754775123497836,15.58556815769389],[76.75501419933093,15.584767961818734],[76.755171785391326,15.583944290935547],[76.755215765110989,15.583473588360839],[76.755167819329344,15.582944808676062],[76.755117414858731,15.581898020803953],[76.755269587671251,15.581337682087741],[76.755350277044997,15.580799861395771],[76.755489641678196,15.579653837592625],[76.755424356614895,15.578779919116593],[76.755463484533749,15.577975938734079],[76.75540656997228,15.577251768831264],[76.755269988319853,15.576365015185482],[76.755191458496029,15.575560212814615],[76.755177065688557,15.575077145391472],[76.755193521027934,15.574250678715964],[76.75527037190048,15.573322584543565],[76.755271253147768,15.572656407109514],[76.7552447941694,15.571599101373181],[76.755371204197886,15.570545037849737],[76.75550629554526,15.570214531863897],[76.755750745100343,15.56979443212737],[76.756056067194052,15.569260173312964],[76.756319941918889,15.568977666472103],[76.75673537321191,15.568272847145469],[76.757269304867322,15.56809819373963],[76.757932846350258,15.567306504713248],[76.758280376685917,15.566990511712794],[76.758893201982843,15.566416014794273],[76.759942640847228,15.565779698732776],[76.760454323029677,15.565571151048973],[76.761204336341876,15.565193241611839],[76.762096901509835,15.564749743207386],[76.762706806383804,15.56431201848728],[76.763370028066475,15.564140866485529],[76.764024613346038,15.563796006599164],[76.76468686574654,15.563680710774541],[76.765079180692368,15.563515755214571],[76.765723753349747,15.563124898528743],[76.766328779473383,15.562906006864223],[76.766743450791708,15.562833112443172],[76.769445251687984,15.562098845570473],[76.769988159309719,15.561443082181594],[76.770898718631187,15.560712720175937],[76.771291018305632,15.560547749255377],[76.771804024604819,15.560211450719159],[76.772318293036989,15.55984211526737],[76.773005641671574,15.559623880405686],[76.773387625093349,15.559390089844083],[76.774221615613214,15.55896837394017],[76.774733693054401,15.558655988090823],[76.775544172866688,15.558233419994762],[76.776246006835223,15.557913027206443],[76.776447828635156,15.557835872377257],[76.776743704045344,15.557760959774495],[76.776934210665971,15.557671991287512],[76.777489223086164,15.557590426278242],[76.777551513166273,15.557407869597224],[76.777943663720393,15.557277099374366],[76.778068678665221,15.556900593967143],[76.778610233424175,15.556955427759613],[76.779004258762271,15.556652473513035],[76.779380162386175,15.556761807168995],[76.780135809931807,15.556695429674702],[76.780375540636754,15.556457651452492],[76.780981253971603,15.55625013540539],[76.781266242698834,15.556152008515083],[76.781433198187656,15.556063328379043],[76.781693509295735,15.555964314355434],[76.781893278445253,15.556002291097956],[76.782424648105476,15.555954080027545],[76.782944526516602,15.555929409808614],[76.784328418042705,15.555712189385407],[76.785497439739373,15.556191060925281],[76.785763541387823,15.556494919335798],[76.786076248531458,15.556133133094306],[76.787039399721209,15.555747925628053],[76.787726268655447,15.555541013787552],[76.788522417643961,15.55524562375704],[76.789835437484072,15.555004134699381],[76.790605468854025,15.554776239282903],[76.792051867852564,15.554400348938469],[76.793269909715988,15.554180520266931],[76.794254356367858,15.553853067148015],[76.794978067008515,15.553636036656606],[76.795599567336154,15.553198606770025],[76.795802495860499,15.553030210546279],[76.796477924749581,15.552227404279403],[76.796765491641736,15.551968502775019],[76.797312055406664,15.551737130174642],[76.798053124193558,15.55118762494005],[76.799110690116294,15.55079317840004],[76.799430209184763,15.550683707432079],[76.799974647535763,15.550600540336132],[76.800730251063925,15.55053405613787],[76.801334045597343,15.550406240461717],[76.80198829850022,15.550096577254184],[76.803079361701592,15.549748930499218],[76.804231413324217,15.549251746899555],[76.805396940574454,15.548709408660638],[76.805837201301927,15.548487893227177],[76.808360360525882,15.547889141677883],[76.809343816335996,15.547585512024513],[76.809759142526147,15.547431535581255],[76.810171886958159,15.547438301629617],[76.810930233042924,15.547268062488268],[76.811067756129773,15.547488564932683],[76.811461384412524,15.547874491458066],[76.811817741594155,15.548374294611111],[76.812141118028478,15.54868926901557],[76.812432707576406,15.548911853049225],[76.812759486829037,15.549044438217305],[76.813260431448896,15.549362330715153],[76.813363098106095,15.549571320619386],[76.813640177167258,15.549897187283552],[76.813788902245719,15.550163715861393],[76.814226706080902,15.550688096899437],[76.814375432955941,15.550954626184343],[76.814652517407012,15.551280490659181],[76.81491053062463,15.55136498850937],[76.815304613454927,15.551739517021865],[76.815896618498513,15.552231757365963],[76.816326557583395,15.552560794192361],[76.816733984887222,15.552831992602171],[76.817072882413001,15.552986674652631],[76.817599948244705,15.553237045291951],[76.817880171409385,15.553356551178549],[76.818619175867738,15.553541475778291],[76.818913745127531,15.553593049566764],[76.819135647867299,15.553699065967548],[76.819461172173476,15.55395820934322],[76.819903783792043,15.554263734379985],[76.820169380587245,15.554520739469405],[76.820425941229047,15.554674758208826],[76.820891939587725,15.555015336606264],[76.821312119375335,15.555229942489394],[76.821706706160526,15.555591925901268],[76.821917087108503,15.555722622769595],[76.822407001315,15.555960245201941],[76.823096169936363,15.556373792632529],[76.823677024192335,15.556819978867345],[76.8244159352259,15.557039091626548],[76.824752676794986,15.55734425294775],[76.825311332781979,15.557755421204751],[76.825635195204853,15.558058981338689],[76.826385151923162,15.558359468858439],[76.826626239084192,15.558673766821384],[76.826859743565876,15.558815546604041],[76.827200081989346,15.55890181542429],[76.827682863572491,15.55895551241797],[76.827953513391193,15.559017623645317],[76.828782692534404,15.558780224553939],[76.829160175396595,15.558786820611473],[76.829535381029487,15.558884591432783],[76.829782053914926,15.558958393322838],[76.830145078392619,15.559067135553649],[76.830308465773143,15.559196147886226],[76.830530343360095,15.559303287279802],[76.83104448872308,15.559554291492153],[76.831195263756968,15.55970566874581],[76.831441508146042,15.559790859778643],[76.831756504197045,15.55995606582737],[76.83223960558044,15.560654260537925],[76.832376195317693,15.560931750905301],[76.832721028910868,15.561396883543432],[76.832941219461745,15.561641985871102],[76.833149346536629,15.56186384455234],[76.833411017694075,15.562349972718261],[76.833736353353999,15.562677524816635],[76.83405045378467,15.562866649383869],[76.834185476860085,15.563247888744661],[76.834286343293456,15.563536656671605],[76.834640982896246,15.564116207632615],[76.834900263636712,15.564821268796464],[76.834895277088563,15.565108553865615],[76.83496989564766,15.565500194268093],[76.834975250505053,15.565856290690229],[76.835064682283161,15.566167467074564],[76.835028620314418,15.566809555641454],[76.835112160940895,15.567431942265397],[76.835152816893995,15.567788154762564],[76.835202731782772,15.568926099135943],[76.835186585463845,15.569166220170624],[76.835212346451243,15.569729518685488],[76.835182833200903,15.570074112479322],[76.83514818158713,15.570647811712616],[76.835241680038536,15.571349269689501],[76.835440016375188,15.572110352478708],[76.835430045973837,15.572684932137234],[76.835389372054394,15.572982360956376],[76.835400634233125,15.573648957021495],[76.835223882616134,15.574276927699238],[76.835378581491213,15.574853944127774],[76.835486227510003,15.575430428491037],[76.835136401978829,15.576526802010706],[76.835368002032098,15.577404293450938],[76.835340591737832,15.578253183341864],[76.835263472269006,15.578642862999809],[76.835216829942823,15.579284593305292],[76.835183038915105,15.579835521332065],[76.83513835581455,15.580363247287982],[76.835124225315141,15.581109946511859],[76.834982723589917,15.581739181960058],[76.834714710326551,15.582228167941038],[76.834617062556873,15.582444863675889],[76.834525598789597,15.582902483606325],[76.834404130393509,15.583095517142526],[76.834194018041799,15.583609377928029],[76.834185615200653,15.584080219503422],[76.834142812273981,15.584527022276488],[76.834123753616936,15.584906223521349],[76.834319981607564,15.585816699260587],[76.833943769861534,15.58639652573328],[76.833787153981646,15.586554087283513],[76.833789047630262,15.587094885907955],[76.833731073056754,15.587724818606869],[76.833716341584406,15.588518282394709],[76.833675659580123,15.58881572204149],[76.833552298433759,15.589089686493487],[76.833536696493894,15.589284206803841],[76.833483235056406,15.589639373389454],[76.833227817969998,15.590105997682823],[76.833071201191757,15.590885293122245],[76.833040578522045,15.591321128627424],[76.833019392654393,15.591849704177738],[76.833131170025197,15.592161696078163],[76.833134398570337,15.592667184474037],[76.833153627907308,15.592874353135269],[76.833228881575295,15.593311675247188],[76.83319861374008,15.593644853179981],[76.833204828285247,15.593978188912635],[76.832994695272291,15.594492061404653],[76.832799344935665,15.594833058375389],[76.832627384034083,15.595209111002601],[76.832517538041131,15.595436786817235],[76.832323715738795,15.595675165421724],[76.832213437656222,15.595914234211643],[76.832327803971666,15.596157872920068],[76.832523678026092,15.596424945466319],[76.833160952770129,15.597033991293777],[76.833353487786667,15.59745153220862],[76.833594143756315,15.597903867601616],[76.833844949790361,15.598367972594248],[76.834003678507841,15.598714721225557],[76.834239037112269,15.599431538034841],[76.834418961578848,15.599871447905667],[76.834774397088992,15.600463622930841],[76.835143280378929,15.600918236730326],[76.835327090059124,15.601255609872579],[76.835569253401843,15.601512919595182],[76.835869021212147,15.60189662579384],[76.836122707245011,15.602222792802786],[76.836349309970359,15.602767036090539],[76.836438842359811,15.603045157430104],[76.836442632351989,15.603505045879693],[76.836540237900863,15.603943170747215],[76.836539475231191,15.604678979552798],[76.836529353912894,15.605195416529439],[76.836439013039694,15.60565424288461],[76.836245065871552,15.605926853320652],[76.836003503501772,15.606244545370963],[76.835693052027764,15.606422887552023],[76.835471898482936,15.606947796447466],[76.835275512388776,15.607346952609394],[76.834795090679876,15.607786206997313],[76.834515345418922,15.608241723400839],[76.834485390197472,15.608597741401272],[76.834406289943459,15.609101463266075],[76.834454940902589,15.609619995828583],[76.834377487260483,15.609986875521189],[76.834310573551605,15.610479624363959],[76.834388836575783,15.61136656462525],[76.834158153702404,15.611707462606782],[76.834035795974188,15.611923295789172],[76.833996950126334,15.612140957718992],[76.833715781035693,15.612664877797261],[76.833384987212085,15.61334903510917],[76.833227197234123,15.613598974882349],[76.83312665688922,15.613953627868442],[76.832987192543044,15.614434673638934],[76.832673020247128,15.614866152350935],[76.832585854918506,15.615738092574013],[76.832518931328138,15.61623084662844],[76.832451219915285,15.616713305041339],[76.832425314299115,15.617459651406643],[76.832482449846154,15.618220360817267],[76.832477888201112,15.618496289683307],[76.83250691456459,15.618817906451646],[76.832514659838978,15.619048637702265],[76.832328237857951,15.620241064694193],[76.832536454764394,15.621084732810594],[76.83259949134451,15.621534199207456],[76.832466661955024,15.622337217359119],[76.832514954486385,15.622958433836398],[76.832692779590118,15.623547749569591],[76.832790775906147,15.623975643926183],[76.833040366519626,15.624566372934956],[76.833232821586122,15.625018163187558],[76.833573099822488,15.625794659703176],[76.833753800433456,15.626246032857901],[76.833920384918059,15.626790457200892],[76.834080559024784,15.627068826246216],[76.834493439102403,15.627731534466024],[76.834784598357373,15.628002010740346],[76.835287134791926,15.628286845658879],[76.835498824585244,15.628324034758458],[76.835789952399168,15.628502094738037],[76.836000889404275,15.628621400244652],[76.836318441162277,15.628661209679612],[76.836576022290203,15.628792440527027],[76.836832310742437,15.628957851451451],[76.837126069721847,15.629066408678163],[76.837557596129798,15.629361262567066],[76.8380113459596,15.629691131755401],[76.838288054914884,15.630063769071405],[76.838683679254217,15.630405263144763],[76.838947773167973,15.630800269619707],[76.839379578951991,15.631119088396435],[76.839784307716741,15.63156244340534],[76.840284437564634,15.631973817722502],[76.840631588811263,15.632383180751129],[76.84097733419442,15.632860948700984],[76.841277259209932,15.633211588097799],[76.841463832107891,15.633352839744822],[76.841777283954926,15.63365718259772],[76.841889386515888,15.63399316703835],[76.8421815545789,15.63411306711591],[76.842498845825432,15.634222448625415],[76.842991544809337,15.634425906503552],[76.843436539658342,15.63458317422679],[76.844031976266336,15.634996779561309],[76.844525340901853,15.635120391954814],[76.845180320541786,15.635453960437751],[76.845610750106829,15.635841168926598],[76.845890463028411,15.636041624262964],[76.846087396196552,15.636251692933204],[76.846718825603048,15.636585560616847],[76.847403700277354,15.637219100002977],[76.847695220655027,15.63741882993002],[76.848149293878322,15.637772643226588],[76.848817501210817,15.638037069827124],[76.849052025280372,15.638156053165037],[76.849333267134597,15.638253874418977],[76.84973195113578,15.638422032055603],[76.850024995954485,15.638519129126312],[76.850420831397926,15.638825235075984],[76.85075959507472,15.639083680166205],[76.851155003818377,15.639401178076831],[76.851538928499451,15.639742227507751],[76.851759393036474,15.639953124563039],[76.852084211266813,15.64026925953044],[76.852362927058422,15.640527855911479],[76.852583394290406,15.640738751292101],[76.852793662050644,15.640845461443195],[76.853086015166582,15.641023533889314],[76.85335511988302,15.641131185931371],[76.853579839739524,15.641135723118614],[76.854275996355469,15.641159239501299],[76.854607060571965,15.641153850240405],[76.855066696163505,15.641173550021184],[76.855351153986433,15.641155099372481],[76.855538992610661,15.641169736881478],[76.856288999634614,15.641482663234656],[76.856604918255414,15.64166042197899],[76.856992291568886,15.64181675075791],[76.857342200643416,15.642029938912859],[76.857493052932426,15.642182457748834],[76.858072133015725,15.642813349214418],[76.858461616471772,15.643476321344503],[76.85888471398745,15.644278535467361],[76.859170744760448,15.644812343732049],[76.859465806296967,15.645450297858275],[76.859521535980562,15.645658778189469],[76.859627897408501,15.646304888621824],[76.85983207548945,15.646792447310418],[76.859817208371481,15.646999572509419],[76.859810872553794,15.647355321599068],[76.859906017617106,15.6479553997673],[76.859953499868084,15.648601712280204],[76.85997826911543,15.649913534466037],[76.860032300983136,15.65082364103473],[76.860155097089205,15.651252418640365],[76.860242882255392,15.651610359177418],[76.860562229745653,15.652260588983689],[76.86080030036392,15.652817808419764],[76.861017265064618,15.653247635412583],[76.861316634921252,15.653678095544645],[76.861723175587926,15.654076974660757],[76.862158668057859,15.654832857161741],[76.862836447838063,15.655189981800095],[76.863079240899765,15.655528303546891],[76.864158970955515,15.65659447857848],[76.864491340424124,15.657118519320914],[76.865634752050354,15.658589699443144],[76.866130411881429,15.659312332129099],[76.866661509352141,15.660000846108426],[76.867020614480225,15.660409448972946],[76.867902981973103,15.661276950825499],[76.868228427227493,15.661547446763448],[76.86914454352727,15.662519962874716],[76.869653971836684,15.663127836505083],[76.870025862686234,15.663478696482334],[76.870794481904582,15.664115114164385],[76.871210591425623,15.664605591107774],[76.87180828819487,15.665560011819824],[76.872473008267448,15.666078657403013],[76.873196690162032,15.666564010038561],[76.873468153854375,15.666579291840652],[76.87452168274821,15.667093389575633],[76.874863497103718,15.667179610254077],[76.876127212909424,15.667835746487512],[76.876932751987653,15.668368467431772],[76.877142824813475,15.668544740198696],[76.87799577966733,15.669100805531141],[76.878800798620958,15.669679137818912],[76.879460346194136,15.669771981031076],[76.879982291628735,15.670299256537348],[76.880366696908482,15.670663086723744],[76.881072345123741,15.67150490011799],[76.881440463947385,15.672051855846933],[76.881667748494024,15.672585863169994],[76.881979799867551,15.672995063603386],[76.882417963028843,15.673590125248896],[76.882974004020042,15.674245246241732],[76.883425794624202,15.67475977443268],[76.883738859297367,15.675110816818139],[76.88408386087545,15.675646686928772],[76.884602348694543,15.676392903938538],[76.884926327898356,15.676767149627967],[76.885133458741635,15.677116744182761],[76.885514077622489,15.677676686851509],[76.885591038089473,15.678011430485316],[76.885844933429823,15.679030165752188],[76.886187564353918,15.679692604393752],[76.886542919913992,15.680298440273662],[76.887242564688208,15.681554220657727],[76.887351002122756,15.682086330667508],[76.887694501717746,15.682725979475901],[76.888342579601385,15.683566894692266],[76.888931737883851,15.684314453561246],[76.88933787700357,15.684760047371865],[76.890151986907895,15.685476717639229],[76.890890199950533,15.685892906250185],[76.891416445620365,15.686213781364239],[76.892470943796411,15.686739209446774],[76.892846400059312,15.68687221315874],[76.894260192907964,15.687081636294748],[76.894756350405672,15.687136720663554],[76.895274754681424,15.687226816940548],[76.896227478227345,15.687450832393445],[76.896794829007973,15.687460486757645],[76.89751408220819,15.687565614045093],[76.898102009798706,15.687749423859248],[76.899282385302257,15.687838781281837],[76.900332535632359,15.687914431626956],[76.901124361927714,15.687905701811045],[76.901581217233471,15.688098591391551],[76.90202838241224,15.688267177628084],[76.902473376362948,15.688493879025989],[76.903013470461218,15.688665721091558],[76.903400605721117,15.688833339094424],[76.904141024127739,15.689065831744154],[76.904563349990568,15.689268911575811],[76.905534444084068,15.689884886989594],[76.906189792931599,15.690219363252185],[76.90716436350526,15.690616370404062],[76.907609231691822,15.690878424693578],[76.908498164971107,15.691424181730481],[76.90899900538642,15.691859349990159],[76.909731683010264,15.692552527228482],[76.910052311498077,15.693145691489441],[76.910278227012256,15.693783463540324],[76.91072886777286,15.694333256723661],[76.911131127068884,15.695043385572621],[76.911680034538406,15.695422037040096],[76.91225207362649,15.696538618818721],[76.912611695285847,15.696971117727134],[76.912818077832512,15.697343480161145],[76.9132819193362,15.697824127390922],[76.914336973569405,15.698339155652301],[76.914677476384568,15.698494844338686],[76.915709153759153,15.698973671033631],[76.916844060136285,15.699685456246845],[76.917029714956058,15.699919021849126],[76.917512674405629,15.70067760489586],[76.917682370654347,15.70111828637055],[76.917830856780952,15.701432708645015],[76.918689077558994,15.703153784520111],[76.918717058283434,15.70360434600307],[76.918841428237911,15.704598007102348],[76.918716387241943,15.705045502343845],[76.918730244653503,15.705622232355543],[76.918662272729236,15.706150458991782],[76.918618210364528,15.706669252186154],[76.918610570193053,15.707095750573581],[76.918597974914448,15.707845002873],[76.918549522482976,15.708639788302325],[76.918914405574967,15.70940680489335],[76.919186927482713,15.710091857725745],[76.919506746588482,15.710708958391468],[76.919990837017011,15.71150182327454],[76.920163009022673,15.711781704356616],[76.920349278290075,15.712695386661467],[76.920493686065271,15.713183118853149],[76.920892090690387,15.714157849026504],[76.920629775440929,15.714938326092538],[76.920326426945877,15.715428670465917],[76.920072634911804,15.715758709366295],[76.919701787006318,15.716732806335234],[76.919418658690034,15.717407577135504],[76.919315962388424,15.717855867453192],[76.919204325154809,15.71816463108447],[76.919102051959726,15.718601526161761],[76.919213190628355,15.719065280228909],[76.919480876904927,15.72003888232509],[76.919704715514158,15.720734800823202],[76.920155478445622,15.721411264431108],[76.920756560066835,15.722195681829035],[76.921051374566701,15.722915764009132],[76.921166135242558,15.7238520748217],[76.921497993569758,15.724526666377143],[76.921733477938318,15.725258371301761],[76.921909613311044,15.726033648796454],[76.922030177103622,15.726624404262646],[76.922124950264433,15.727306691833514],[76.922348155561409,15.728083616523991],[76.922714809232801,15.728805072595089],[76.923285252014651,15.729369322020233],[76.923881301273653,15.729783832569545],[76.924720104966823,15.730513784922557],[76.925197892815305,15.730972090367867],[76.925348029147031,15.731148503556216],[76.925609707490992,15.731810375899549],[76.926023126557808,15.732510637978637],[76.926686471309665,15.733872362942705],[76.926758681485481,15.734496812838412],[76.926880491241363,15.734959808693663],[76.92718591574301,15.735808078315348],[76.927306087870164,15.736410239474703],[76.927693973223327,15.737259105701627],[76.928013008099853,15.738026828930417],[76.928518100241391,15.73892429043274],[76.928695191421554,15.739643698642995],[76.929155243831374,15.740390096301653],[76.929496981830098,15.741181437930702],[76.93008817300003,15.741918715091579],[76.930422468456584,15.742466726011521],[76.930756954355985,15.742946273262275],[76.931093178495487,15.743379092057125],[76.931864926545956,15.744616791882274],[76.932443065194832,15.745388986742492],[76.932742073928736,15.745935765753025],[76.933377047188998,15.746859434725042],[76.934088395214715,15.747471937470719],[76.934752634688607,15.748083937768751],[76.935683513003482,15.749036169161011],[76.936248849761228,15.749900345534289],[76.936579957995178,15.750598878376888],[76.936740867822138,15.750866957694354],[76.937143887991198,15.751247318346458],[76.937272244668904,15.751440086532009],[76.937620221467213,15.751938354971776],[76.937782211967473,15.75227266184506],[76.937953391334744,15.75267690120832],[76.93807895065865,15.752976844312602],[76.938265419352064,15.753254943503],[76.938404335725906,15.753417266416299],[76.938637075741298,15.753718658315234],[76.938847310263881,15.75392797119061],[76.938999265684089,15.754056511322224],[76.939280394350561,15.75432421085309],[76.939559697640377,15.754672870822157],[76.939766142170768,15.75511143302381],[76.939950410890049,15.755480751285743],[76.940191981344668,15.755989008481347],[76.940306533611405,15.756299981091997],[76.940539043658077,15.756544303412166],[76.940583033259216,15.756819725365014],[76.940767264249274,15.757190183465381],[76.94089274272477,15.757524360655912],[76.941053993013227,15.757847229783978],[76.941298093123677,15.758160427503316],[76.941469530307444,15.758621738035504],[76.94151412806805,15.758817296907594],[76.94160435126193,15.759117152268654],[76.942027073281807,15.760142979947586],[76.94218735159312,15.76052401745469],[76.942335347239549,15.760950276695334],[76.94242412414583,15.761352793047152],[76.942552236481745,15.761584353880069],[76.942687289201544,15.762010163064019],[76.943036248756826,15.762451403309379],[76.943187704713722,15.762625572503721],[76.943386612378902,15.762823076177863],[76.943702743900403,15.763069163804568],[76.94386630196081,15.763266578000319],[76.944332354218446,15.763823728190477],[76.94463727566351,15.76402263469312],[76.944884714811906,15.764119113462307],[76.945592694155323,15.764381104221847],[76.945981073581862,15.764490469453845],[76.946818898111403,15.764778652259528],[76.947349215844426,15.764969409682939],[76.947738864590491,15.765044577481858],[76.948022877747363,15.765140039085269],[76.948601633538814,15.765264001384075],[76.948907409281745,15.765440103830807],[76.949293105440546,15.765812991929897],[76.949645248625217,15.765978150803658],[76.95027843693299,15.766446367496266],[76.950794779575162,15.766855744125671],[76.951240219988563,15.767206736647335],[76.951898621311443,15.767503496759129],[76.952427806268901,15.767820874193358],[76.952778297451715,15.768158294818035],[76.953542658655621,15.768617358246523],[76.953753870545242,15.768769626748124],[76.954104876462708,15.769061412794002],[76.954613035452624,15.769182901073069],[76.954871546336889,15.769267193903394],[76.955579442136965,15.769564513794403],[76.956013818899351,15.769800986014326],[76.956721936583321,15.770028691898814],[76.957226804146046,15.770334938382669],[76.957766518256932,15.770686900906517],[76.958013803793406,15.770851826720781],[76.958530823765287,15.77118017458498],[76.959129437714452,15.771533032989836],[76.959918525046518,15.771866243401142],[76.960543341954178,15.772116151498794],[76.960815652757844,15.772178087301986],[76.961419003523446,15.772243506995199],[76.961821800910343,15.772250618318763],[76.962718813637309,15.772470005035512],[76.963205179498445,15.772511963177339],[76.963690074817421,15.772529901393355],[76.964128226300616,15.772537089646699],[76.964614171750213,15.772590440915586],[76.965192174753454,15.772735995388414],[76.965616490384647,15.772926441030142],[76.965966606071689,15.773275231569656],[76.966269809039659,15.773681742476176],[76.967079518995732,15.774255291876059],[76.967370789641777,15.774570088638002],[76.967765469851756,15.775148669399522],[76.968442016245035,15.775881943451951],[76.968716180273105,15.77659672719234],[76.969088129513139,15.777152836259562],[76.969308240113932,15.777511959469424],[76.969527637452416,15.777858504875667],[76.969688348751703,15.778262364781654],[76.969836029987761,15.778700011539749],[76.970127569230073,15.779071877673212],[76.970430586246763,15.779420174408763],[76.970822771835202,15.780194963388832],[76.971089093570853,15.780611607430904],[76.97147346471462,15.781087114015554],[76.971808905523176,15.781643100117201],[76.972167723190367,15.782268370436222],[76.97285853483038,15.782840067240787],[76.973244345973541,15.783212906927574],[76.973840366486485,15.783830397594222],[76.974272890024423,15.784215121543941],[76.974659128765637,15.784576560183577],[76.975186462295312,15.785043306752288],[76.97556101664965,15.785370101582933],[76.976065480868826,15.785721927363067],[76.976850713530027,15.786387032017522],[76.977331304122188,15.786715204314683],[76.977980603714627,15.786943062363154],[76.978169495164337,15.786934749995936],[76.97885134790603,15.787334921453843],[76.979167016795174,15.78766081531324],[76.979527932926885,15.788102400851043],[76.979901421879305,15.788554690453275],[76.980247182533844,15.78924797544617],[76.980422177944448,15.789457166088235],[76.980675393260114,15.789942965292656],[76.980871509859682,15.790346903987089],[76.981057696482097,15.790636370011221],[76.981417705315366,15.791134986497317],[76.981823384497673,15.791737894625729],[76.98192762949482,15.791980022747101],[76.981993458038829,15.792337236142027],[76.982199133611331,15.792833950207037],[76.982535108019164,15.793377387520682],[76.982812058621278,15.793955310383282],[76.98331277237412,15.794570627199914],[76.98360600583905,15.794770200246429],[76.983852107395961,15.794969287305435],[76.9841461807857,15.79514606151997],[76.984744724666243,15.795601543163011],[76.985403552688865,15.795956384329498],[76.986073780332461,15.79632188799993],[76.986626202011394,15.796685609504381],[76.98716547504948,15.797118495192086],[76.987552404595178,15.797398899687142],[76.987962339995292,15.797726889049025],[76.988291164711796,15.797984745253276],[76.988773000368937,15.79831292901669],[76.989199044358742,15.798331035232556],[76.989754772736234,15.798476869432141],[76.990034995002574,15.798710221220642],[76.990302249189511,15.799104049943058],[76.990594384913152,15.799430257654084],[76.990864014245687,15.799663243576965],[76.991038280224302,15.799860986907838],[76.991177526279841,15.800081491628005],[76.99144387047339,15.800532353334384],[76.991759480073725,15.800893607275471],[76.99215632881679,15.801289616013207],[76.99257702962727,15.801742368858902],[76.99295013859232,15.802207178594083],[76.993439192212804,15.802788970214532],[76.993764717417221,15.803297793409332],[76.994106268566355,15.804301359912618],[76.994217438676046,15.804773129607211],[76.994284978510692,15.805084753456978],[76.994280779785015,15.805359667790436],[76.994444044096369,15.805568444188674],[76.994617825882983,15.805811822046339],[76.995063309415556,15.806232326309219],[76.995463386703761,15.806444687121225],[76.995921042408398,15.806726366575671],[76.996121381089779,15.806856524137913],[76.996544095024845,15.807126727114893],[76.996817358042676,15.807968158880552],[76.996942261596431,15.808290888034101],[76.997198080229794,15.808708286765897],[76.997532857183316,15.809287046626157],[76.997763381054924,15.809783468452693],[76.997957171916227,15.810349389923793],[76.998083675369472,15.810660761446213],[76.998431684507153,15.811136114511989],[76.998595797726423,15.811322090926328],[76.998993457648169,15.811536642649115],[76.999226996265847,15.811726147734527],[76.999520903467243,15.811651795022438],[77.000276879796317,15.811546534858362],[77.000785675691731,15.811559461714918],[77.001371415884549,15.811917434014694],[77.002446356123215,15.81243716706833],[77.003030437127691,15.81267980026354],[77.003947362809555,15.813008054411766],[77.00461331537069,15.813236374671051],[77.006135157581724,15.814301016186407],[77.00715661123003,15.815155577242988],[77.007959147240271,15.815646516191244],[77.008661586673313,15.815909169806801],[77.009413642754438,15.81629793048179],[77.010525365410729,15.817553899927237],[77.011007839770031,15.818061235701874],[77.011533649756984,15.818350915335493],[77.012310422084866,15.818773609589197],[77.014103135998454,15.820429560799408],[77.014416256367127,15.820700526098427],[77.015040720236883,15.821194456703655],[77.015823701719995,15.82199627872329],[77.016403433081862,15.82261764579799],[77.017162265155207,15.823338739728982],[77.01755060775082,15.823906749383982],[77.018044978499461,15.824380233877253],[77.018688874725427,15.825988795649335],[77.01904958783787,15.826280787063311],[77.019586918718332,15.826546868355345],[77.020737909430636,15.82741035384225],[77.021574140348847,15.828499322060448],[77.021980787915027,15.829341883498243],[77.022556414874359,15.830400243572525],[77.022806725038379,15.831165548560312],[77.023098102583944,15.832194779464698],[77.023555368419736,15.833266211676239],[77.023975087371653,15.834235918498695],[77.024350115138134,15.835331933112931],[77.024766127641143,15.836048124754843],[77.02513823228972,15.837063002071467],[77.025302225134737,15.837512616373727],[77.025147068118869,15.837596338894047],[77.025082104652469,15.837631782918042],[77.026906388060098,15.841827210230662],[77.028551771978883,15.844432243295639],[77.029351038121447,15.846313230388905],[77.030288132778068,15.848521953961459],[77.030600949516227,15.850453672314417],[77.031400720511982,15.854166703000523],[77.031584129543546,15.854861259742266],[77.030331358811225,15.854323073164361],[77.029388929958458,15.853973548686918],[77.028896101617192,15.853809458844722],[77.028618955182353,15.853810259907176],[77.028308207264331,15.85392405567818],[77.028030711384858,15.854193082707699],[77.027604316153784,15.8545677395062],[77.027069481691484,15.854940970641751],[77.026557021567996,15.855314965849473],[77.0259376861802,15.855709275359255],[77.025296314220171,15.856125657566947],[77.024635025711959,15.856602994871352],[77.023684843499964,15.857402609319598],[77.023321294406159,15.857734890226647],[77.022958279809956,15.858149374087926],[77.022660272697621,15.858398287285823],[77.022254557582684,15.858916322873595],[77.021785756480327,15.859579448169525],[77.021209241087178,15.860285685557963],[77.020611453588089,15.860928413249201],[77.019959922580512,15.86139579670844],[77.019404974839006,15.861769460226368],[77.018870733264833,15.862060503813177],[77.018357303859105,15.86233057074641],[77.017652128157735,15.862684244873725],[77.016967658623628,15.862955296916317],[77.016369657325484,15.863183650584798],[77.015727991616387,15.863412788601012],[77.015065079852448,15.863642336805707],[77.01432740040913,15.863820236506195],[77.014121622428689,15.863836013282615],[77.0137703874408,15.863862783163293],[77.013172004358665,15.863843410860387],[77.012508006531576,15.863844616282737],[77.011823089636479,15.863805149282145],[77.011117254571644,15.863725009834734],[77.010516781109857,15.863601680759698],[77.010196359234541,15.863559869399413],[77.009811476949366,15.863603739053255],[77.009511180031353,15.863624256315607],[77.009233748830596,15.863728885334661],[77.009070725267776,15.863800912588941],[77.008955607960772,15.863852894380164],[77.008496057709152,15.864196690896545],[77.008176117330848,15.864528154404477],[77.007792264514975,15.864962440646291],[77.007407958049924,15.865441228588494],[77.007087787702872,15.865875416949018],[77.006725571708969,15.866394914379823],[77.006320240174674,15.86693233599499],[77.005936876042327,15.867513888526734],[77.005530843822129,15.868134615209202],[77.005072738959839,15.868953313799823],[77.004475536263996,15.869866545939294],[77.004092197284507,15.870446958068372],[77.003388787670929,15.87129718323475],[77.002428407783839,15.872272135359731],[77.001766461708868,15.872955981022942],[77.001061496213239,15.873558441124871],[77.000483795942216,15.874035141819464],[76.999736700358085,15.874596197458107],[76.998859745214787,15.875417614892196],[76.998289677928724,15.875653712759178],[76.997804633489395,15.87569410975088],[76.996765749829635,15.875721164921512],[76.996523471502542,15.875702557579665],[76.996076191339426,15.875678040125255],[76.995721621805217,15.87560191805454],[76.995405870271028,15.875464347162284],[76.995049597531064,15.875274014512051],[76.994642860133339,15.875173264173998],[76.994274115183956,15.875097792545075],[76.99377492497382,15.87507376407156],[76.993334762162689,15.875080304095444],[76.992849031410472,15.875043038312475],[76.992611932769321,15.875044008645155],[76.992388037566229,15.87500662188793],[76.992139098231334,15.874880476849215],[76.991888499708082,15.874638981183878],[76.991743835913041,15.87443537757251],[76.991624328539245,15.874221225340953],[76.991445611408409,15.873885175795476],[76.990998443534707,15.873440572019076],[76.990603361777787,15.873022873311738],[76.990220829485423,15.872680946131398],[76.989839989619028,15.872389302663821],[76.989580878660178,15.87228335007093],[76.989378731670087,15.872199905484704],[76.988932121650166,15.872061239225063],[76.988577267349996,15.871961118049619],[76.98784834109081,15.871802447590051],[76.987243447019509,15.871766764173582],[76.986724455245593,15.871736322188674],[76.98610689403047,15.87166024442441],[76.98568553565319,15.871572664146354],[76.985212260042388,15.871421650765521],[76.984817106420266,15.871295018739165],[76.984522794078686,15.871216381431664],[76.984160752357909,15.871119426656172],[76.983628297532832,15.871038282609623],[76.983207452093581,15.871000939176771],[76.982957404237624,15.871001446386645],[76.982550995623299,15.871052494852316],[76.982366999093543,15.871116920850669],[76.982157135575164,15.871243237603283],[76.981585588763849,15.871519169632727],[76.981336562292384,15.871684086666219],[76.981086527911131,15.871876365131614],[76.980759217754212,15.872117344804014],[76.980366493176604,15.872373187843241],[76.980037748410197,15.872589003635044],[76.979644596234522,15.872792321378984],[76.979144505912473,15.872985099079305],[76.978784326399321,15.873093665956024],[76.978455228594967,15.873094862682406],[76.978153769256977,15.873082172197741],[76.977719458071604,15.873058045844779],[76.977417032146391,15.873071575335674],[76.977128320800603,15.873096993460269],[76.976879199107685,15.873200259256807],[76.976701886941953,15.873307145418041],[76.976347852803642,15.87353691910727],[76.975940470415566,15.873678095309437],[76.975573680200242,15.873741907850087],[76.97506011245396,15.873756130270809],[76.974494672389952,15.873705775465996],[76.973970206282686,15.873631721209996],[76.973483054395686,15.873505303131399],[76.97315390898062,15.873315853429403],[76.971634739257595,15.872551043547368],[76.970694058526362,15.871834758543621],[76.969851530418012,15.871239438286013],[76.969640605989298,15.871074616800557],[76.969404187372831,15.870961421733002],[76.969114722340478,15.870911457654346],[76.968517239370314,15.870994669474818],[76.968254021313967,15.871160215116904],[76.96773039872474,15.871670619295081],[76.966772913209468,15.872751605829961],[76.96590148719676,15.873737397458854],[76.96518805777454,15.874724089794789],[76.964730325713063,15.875397722676242],[76.964205319718317,15.876072451512401],[76.963865219348392,15.876403134262464],[76.963510231199223,15.876594034389122],[76.96335217442163,15.876658195081212],[76.962755126236047,15.876728843016393],[76.961728678853035,15.876769777229528],[76.961034158069225,15.876797089741549],[76.959575830342033,15.876811631643774],[76.958616645214263,15.876915375945972],[76.958084884786899,15.876974569136761],[76.957663594681563,15.877076402086786],[76.957204269008813,15.877218010423208],[76.956744985556881,15.877358477257792],[76.956286157550764,15.877550326926759],[76.955825978478487,15.877778657146219],[76.954696974931096,15.878391316639718],[76.953712311785253,15.878927927763053],[76.952807662480069,15.879437628810907],[76.952529297929686,15.879660843536479],[76.952348167924001,15.879806382272903],[76.951738165133719,15.880321736183248],[76.951384568474921,15.880601697711755],[76.951082827964285,15.880691680387669],[76.950530108943013,15.880679344633803],[76.950254320760862,15.880514522230948],[76.949925167261,15.880198305805127],[76.949325398976711,15.879482287328452],[76.948850174021743,15.878429273898925],[76.948533098370845,15.877882885677817],[76.948230128964866,15.877528763861529],[76.947874619792856,15.877160259394955],[76.947617899250943,15.876990388085721],[76.947276817022413,15.876900916999611],[76.946462439420117,15.876916004971459],[76.945686293218031,15.876981503103753],[76.944629690289247,15.877167385173541],[76.943788936353613,15.877384734692296],[76.942836552370864,15.877686096593562],[76.941746445875268,15.878107090589143],[76.941040397909717,15.878476366638768],[76.940322312519356,15.878852070451927],[76.939010625779147,15.879554147377817],[76.938170539291747,15.880229246785809],[76.937738110975232,15.880534972105272],[76.937494651363551,15.880706863118812],[76.936931067218907,15.88143153392488],[76.936564678550511,15.881927909699428],[76.936302803475527,15.882373129799554],[76.93600176454909,15.882793013235387],[76.934828310564797,15.883804667577801],[76.933955820048467,15.884652138054218],[76.933496951618181,15.88509734521881],[76.933137702759666,15.88540104309299],[76.932894134451814,15.88560717148491],[76.932171292482053,15.886077426685265],[76.931314633874265,15.886625209639842],[76.930866356581205,15.886912102077442],[76.930038444960843,15.887384395864256],[76.929342923453802,15.887880705987333],[76.927926346726068,15.888671514036785],[76.927546031475813,15.889001864196066],[76.927335785275147,15.88929476490901],[76.927171331594394,15.889529901299236],[76.927028071866118,15.889797740330375],[76.926773049140124,15.890247758036649],[76.9265766935887,15.890769457121955],[76.926419518956678,15.89112585385204],[76.926262809652002,15.891469709230156],[76.926092940028425,15.891786850557335],[76.925896599748356,15.892117908387361],[76.925713281446633,15.892384350375275],[76.92547684306723,15.89271515148482],[76.924926370732464,15.893274728652276],[76.924362403905533,15.893784745015626],[76.923930134590805,15.894147526343025],[76.923587970790663,15.894434681072916],[76.923299180393116,15.894650636510839],[76.923251335222773,15.894668373811928],[76.923024102778385,15.894751770208947],[76.92276125392965,15.89477798649645],[76.922459507130739,15.894740057374706],[76.922235355009477,15.894677437719054],[76.921939491277399,15.894544960869863],[76.921505414552314,15.894291217803417],[76.921070585039033,15.894026031100591],[76.92067569641992,15.893733697992451],[76.920360269177593,15.893493227149184],[76.92014885965861,15.893342006436487],[76.919767638906549,15.893189421391797],[76.919301660310808,15.893095520120372],[76.918948509216392,15.893044372701054],[76.91886756292449,15.893032412670019],[76.918066044705469,15.893047795777061],[76.917671794788532,15.893086535627868],[76.917198989894942,15.893238970418741],[76.916779172128386,15.893457184706689],[76.916287010337044,15.893717391349741],[76.915761520150326,15.893985563485181],[76.915289168905929,15.894252168018728],[76.914646156622197,15.894634953728767],[76.914252774477831,15.894903173887529],[76.913964409881729,15.895170497754302],[76.913609023778918,15.895526805476983],[76.913530948502626,15.895690747302934],[76.913426817591514,15.895983919932794],[76.913328631730963,15.89624419415318],[76.913237919853586,15.896841498439679],[76.913140125658472,15.897470521165218],[76.913011825574657,15.898600779526513],[76.912822856869795,15.899712936143967],[76.912719606307675,15.900298391484181],[76.912471279623816,15.901072845548393],[76.91234779810317,15.901536585055052],[76.912046081847009,15.902287483427658],[76.911536485552631,15.903266283757286],[76.911248299721279,15.903749378896469],[76.911057853287772,15.904047527245906],[76.910453918617208,15.904709084515121],[76.910114013181683,15.905092190712061],[76.909825193139753,15.905370914335519],[76.909365481191429,15.905676764741884],[76.909005131896663,15.905849097342594],[76.9084798375427,15.906015656211109],[76.908063118963867,15.906054727901831],[76.907926947841503,15.906068228393369],[76.907243893153989,15.906068293187451],[76.90658718425712,15.906057861342942],[76.906060996079418,15.906058846212757],[76.905574710168366,15.906033827926185],[76.905200734329071,15.906002465863727],[76.904504153708302,15.905954096641647],[76.904017431216019,15.905877684512589],[76.903505381622594,15.905879154907266],[76.903064646584639,15.905897964208751],[76.902236357671839,15.906027628428999],[76.9017776617181,15.906116583765254],[76.901731073290847,15.906132075589598],[76.901517152082334,15.906205634093393],[76.901251845442971,15.906296798393994],[76.900582641878799,15.906525641997051],[76.900017482987465,15.906779820594355],[76.899610326076512,15.907036111146608],[76.899053336464377,15.907513189565961],[76.898770592627017,15.907786398065324],[76.898547295701917,15.908078816146169],[76.898168170719401,15.908626059725767],[76.897932312651648,15.909033340975965],[76.897480884966853,15.909904554129001],[76.896916703442585,15.910730715403222],[76.896694523123344,15.911276613584425],[76.896341949645702,15.912027999964154],[76.896085767194663,15.912568140231143],[76.895850877510782,15.91294919871445],[76.895667163052039,15.91331835207564],[76.89543061597648,15.913649120478931],[76.8952214756019,15.913878102572323],[76.894840772279451,15.914183261884128],[76.894663496046363,15.914317463069231],[76.894203929625093,15.9147751179295],[76.893915960287728,15.915092663948204],[76.893654388843288,15.915461368473334],[76.893391362128085,15.915868838019454],[76.893168943755342,15.916200099817779],[76.892985492502959,15.91653044708927],[76.89285474361165,15.916682263715003],[76.892446913862557,15.916860885388312],[76.892026788872158,15.917052775138426],[76.891751093216527,15.917231468183815],[76.891489114835267,15.917484849710057],[76.890892102582285,15.917989046975039],[76.890592593486787,15.918299333148632],[76.890531199925334,15.918363393290184],[76.890190577634215,15.918668810996866],[76.889547378500879,15.919051507892679],[76.888529587283969,15.919669924597363],[76.887847024873196,15.920063791032646],[76.887740812565568,15.920127416953616],[76.887230248785656,15.920433707931407],[76.886638727035688,15.92079080968637],[76.885333022176951,15.921472155447303],[76.884584800105429,15.921854567113858],[76.883678858124554,15.922415237152306],[76.882910922524175,15.923008156530184],[76.881447572316205,15.92421023805529],[76.880700099439665,15.924948862071027],[76.879820281365539,15.925661133763514],[76.878869367924906,15.926443967751693],[76.878383549137808,15.926749962303761],[76.877647811852114,15.92708140829293],[76.877030549775981,15.927337105413104],[76.876584447304225,15.927465249280543],[76.876130869052645,15.927509786563309],[76.875210471382204,15.927574414757601],[76.874553895435994,15.9275889624908],[76.873936336915833,15.92753866521703],[76.873554085796115,15.927412171309976],[76.873264864207258,15.927196477393073],[76.872659471570969,15.926791540257653],[76.872300926093303,15.926536868676154],[76.872007873189759,15.926329029523055],[76.871468318978984,15.926024592687922],[76.870981316212294,15.925797357295242],[76.870462004638114,15.925613506126458],[76.869383709191894,15.925234125052206],[76.868634786434484,15.924943987423676],[76.867812695897157,15.924748306905407],[76.867246992626775,15.924762601738111],[76.866918518253243,15.924774989210135],[76.86643325372664,15.924877744729626],[76.866038609449291,15.925017946773185],[76.86553342208633,15.925304948562403],[76.864548585565601,15.925827331539177],[76.862992223793171,15.926737113667311],[76.862231086642808,15.927209154961798],[76.861757999678204,15.927489287908271],[76.861311590880931,15.927718985022858],[76.860851848389871,15.92783289968432],[76.86036586341443,15.927923052132822],[76.85997098018521,15.92797532142656],[76.859058562249416,15.928046979289935],[76.856790804840543,15.928108405108064],[76.856121117982752,15.928095006301289],[76.855608510535546,15.928108850842309],[76.854824169003109,15.928163318524474],[76.854294337258636,15.928289576997761],[76.853814430284402,15.928499800004303],[76.853210364459798,15.928717047403259],[76.852619587413201,15.928894804052613],[76.85218598859187,15.929034733778606],[76.851805700291052,15.929137731579623],[76.85151631790373,15.92923937831139],[76.851325556161598,15.929322821695658],[76.850970746777193,15.929500929383391],[76.85061707196499,15.929680217754115],[76.8502745048213,15.929908991531631],[76.849841505176258,15.930126572566714],[76.849493129525897,15.930259236734749],[76.849047695400699,15.93039988074951],[76.848665978778598,15.930540496159812],[76.848390186104908,15.930781905700703],[76.848141493806708,15.93102427464809],[76.847957970689109,15.931290642603811],[76.847669097646559,15.931659458193019],[76.847328532847627,15.93199105069832],[76.847110834223358,15.932162588481621],[76.846770308950269,15.93249303993017],[76.846415657669382,15.932760196319252],[76.845904249473051,15.933053767505221],[76.84530638292226,15.933542931792283],[76.845069693912862,15.933810840018769],[76.844860609233876,15.934128818934601],[76.844676830096404,15.934432853042011],[76.844493406691797,15.934852211403355],[76.844337144748138,15.935208597340772],[76.844061631450472,15.935629261000866],[76.843923437322132,15.935788770812096],[76.843569873901032,15.93618269200573],[76.843320901328454,15.936525516671235],[76.843110859045353,15.936868579156663],[76.842861579248975,15.937313006422736],[76.842718043737904,15.93764472606445],[76.842546454738866,15.938000568904956],[76.842371282360133,15.938451047908639],[76.842266261218612,15.938731614330163],[76.842095018070935,15.93898471563557],[76.841899126948519,15.939265485162391],[76.841622600351243,15.939494302430901],[76.841110250720476,15.939811805901087],[76.840671264702394,15.940123916325492],[76.839976204031103,15.940747771205915],[76.839753034666757,15.940938517814423],[76.839462852778837,15.941091493301959],[76.839213317860896,15.941168272956208],[76.838846282405484,15.941231751393559],[76.838373487393341,15.941283484275273],[76.837853375420238,15.94143172604716],[76.837564887754979,15.941571057941454],[76.837381410451457,15.941710690330011],[76.837144526507672,15.941889528998418],[76.836868936853236,15.942093255195298],[76.836566654658441,15.942347410371163],[76.836159606443616,15.942563595897003],[76.835818200821606,15.942666794920976],[76.835397630266797,15.942679270255544],[76.835029905803552,15.942667359822257],[76.83454352377278,15.942579306897175],[76.833540932050454,15.942474067617052],[76.833081786040765,15.942508000592442]]]},"properties":{"OBJECTID":118,"st_code":"29","st_name":"KARNATAKA","dt_code":"559","dist_name":"RAICHUR","ac_no":58,"ac_name":"Sindhanur","pc_no":8,"pc_name":"KOPPAL","pc_id":2908,"status":" ","Shape_Length":202153.90972832841,"Shape_Area":1090585931.3845644,"st_area_sh":1090585931.3800001,"st_length_":202153.909728,"State_LGD":29,"Dist_LGD":546,"AC_ID":"29058"}}]}